OBJECT_NAME,OBJECT_ID,EPOCH,MEAN_MOTION,ECCENTRICITY,INCLINATION,RA_OF_ASC_NODE,ARG_OF_PERICENTER,MEAN_ANOMALY,EPHEMERIS_TYPE,CLASSIFICATION_TYPE,NORAD_CAT_ID,ELEMENT_SET_NO,REV_AT_EPOCH,BSTAR,MEAN_MOTION_DOT,MEAN_MOTION_DDOT
FENGYUN 3D,2017-072A,2026-06-15T22:46:58.507392,14.19738276,.00025797,99.0119,141.3491,64.9217,295.2226,0,U,43010,999,44481,-.12535819E-3,-.311E-5,0
NOAA 20 (JPSS-1),2017-073A,2026-06-15T22:39:24.928128,14.19511549,.00002931,98.7771,106.4177,87.9774,272.1435,0,U,43013,999,44429,.46943231E-4,.55E-6,0
GOES 17,2018-022A,2026-06-15T10:55:30.285696,1.00269922,.00003992,0.9331,85.7405,34.0768,218.2957,0,U,43226,999,3040,0,-.18E-5,0
SENTINEL-3B,2018-039A,2026-06-15T22:15:24.630624,14.26734293,.00007362,98.6250,234.4777,86.8473,273.2792,0,U,43437,999,42394,.44625125E-4,.64E-6,0
FENGYUN 2H,2018-050A,2026-06-15T21:59:36.447648,1.00269718,.00019645,3.0271,79.0829,138.3992,96.0271,0,U,43491,999,2942,0,-.131E-5,0
METOP-C,2018-087A,2026-06-15T20:54:54.251136,14.21511760,.00017179,98.6645,226.4991,131.2129,228.9197,0,U,43689,999,39464,.55580826E-4,.78E-6,0
GEO-KOMPSAT-2A,2018-100A,2026-06-15T22:51:15.322752,1.00271059,.00017802,0.0520,119.3430,326.9948,288.9728,0,U,43823,999,2761,0,-.343E-5,0
METEOR-M2 2,2019-038A,2026-06-15T23:31:32.876832,14.24365041,.00020927,98.9136,154.2474,50.1565,309.9797,0,U,44387,999,36112,-.65627449E-4,-.198E-5,0
ARKTIKA-M 1,2021-016A,2026-06-14T23:57:49.561920,2.00623319,.72877661,63.2382,57.9810,269.9259,14.6142,0,U,47719,999,3874,0,-.233E-5,0
FENGYUN 3E,2021-062A,2026-06-16T00:05:24.812160,14.19903014,.00028218,98.7485,170.4246,87.9897,272.1603,0,U,49008,999,25641,-.96056717E-4,-.248E-5,0
GOES 18,2022-021A,2026-06-15T12:24:33.414624,1.00269699,.00003037,0.0097,97.4311,68.9387,146.5668,0,U,51850,999,657,0,.99E-6,0
NOAA 21 (JPSS-2),2022-150A,2026-06-15T21:45:21.718368,14.19565291,.00015839,98.7060,105.7172,157.0603,203.0645,0,U,54234,999,18636,.41910914E-4,.45E-6,0
METEOSAT-12 (MTG-I1),2022-170C,2026-06-15T19:04:38.646336,1.00272279,.00031359,0.7369,22.7417,71.7352,95.3415,0,U,54743,999,1296,0,-.7E-7,0
TIANMU-1 03,2023-039A,2026-06-15T22:49:04.678176,15.47254157,.00042327,97.5225,340.8714,101.9354,258.2370,0,U,55973,999,18064,.25194642E-3,.12744E-3,0
TIANMU-1 04,2023-039B,2026-06-15T22:34:36.639840,15.47851582,.00048391,97.5163,340.0145,98.8572,261.3226,0,U,55974,999,18065,.24739251E-3,.12776E-3,0
TIANMU-1 05,2023-039C,2026-06-15T22:21:17.564256,15.47181352,.00039245,97.5209,340.4664,117.8571,242.3077,0,U,55975,999,18062,.24186086E-3,.12198E-3,0
TIANMU-1 06,2023-039D,2026-06-15T22:39:21.881664,15.47756018,.00043202,97.5215,341.1142,113.6069,246.5635,0,U,55976,999,18065,.24548191E-3,.12633E-3,0
FENGYUN 3G,2023-055A,2026-06-15T22:45:08.947872,15.52580022,.00069607,49.9933,352.4073,291.4347,68.5877,0,U,56232,999,17981,.33634437E-3,.20684E-3,0
METEOR-M2 3,2023-091A,2026-06-15T23:22:57.339264,14.24046676,.00042921,98.6090,221.9774,158.6095,201.5265,0,U,57166,999,15434,.16795586E-4,-.5E-7,0
TIANMU-1 07,2023-101A,2026-06-15T23:42:57.041280,15.29796150,.00040245,97.2591,217.6840,123.7564,236.4061,0,U,57399,999,16146,.18354735E-3,.5223E-4,0
TIANMU-1 08,2023-101B,2026-06-15T22:54:55.217664,15.29800462,.00055605,97.2580,217.4223,118.0794,242.1010,0,U,57400,999,16145,.18996883E-3,.5411E-4,0
TIANMU-1 09,2023-101C,2026-06-15T22:31:04.370592,15.29831140,.00045029,97.2538,216.8224,129.7011,230.4628,0,U,57401,999,16145,.19671052E-3,.561E-4,0
TIANMU-1 10,2023-101D,2026-06-15T23:18:38.009664,15.29802833,.00061003,97.2619,217.9039,129.0937,231.0847,0,U,57402,999,16145,.19285014E-3,.5495E-4,0
FENGYUN 3F,2023-111A,2026-06-15T23:42:17.659296,14.19938909,.00015806,98.6835,237.0187,94.4671,265.6686,0,U,57490,999,14869,.38947603E-4,.39E-6,0
ARKTIKA-M 2,2023-198A,2026-06-09T18:48:45.592992,2.00606537,.69004015,63.2205,155.1874,267.4353,18.7899,0,U,58584,999,1817,0,.212E-5,0
TIANMU-1 11,2023-205A,2026-06-16T00:07:13.490400,15.26985657,.00090998,97.3441,188.5804,21.1910,338.9705,0,U,58645,999,13734,.18743491E-3,.4897E-4,0
TIANMU-1 12,2023-205B,2026-06-15T23:24:30.583872,15.26949765,.00068797,97.3429,188.3071,7.9045,352.2301,0,U,58646,999,13732,.18787297E-3,.4901E-4,0
TIANMU-1 13,2023-205C,2026-06-16T00:10:41.024064,15.26803564,.00060399,97.3459,188.6111,346.3619,13.7455,0,U,58647,999,13732,.19136451E-3,.497E-4,0
TIANMU-1 14,2023-205D,2026-06-15T23:49:25.830912,15.26848254,.00070158,97.3393,187.7793,350.2186,9.8916,0,U,58648,999,13732,.1943127E-3,.5056E-4,0
TIANMU-1 19,2023-208A,2026-06-15T21:57:30.693312,15.31557736,.00039261,97.4509,283.2078,333.9504,26.1539,0,U,58660,999,13713,.22511489E-3,.6782E-4,0
