FENGYUN 3D              
1 43010U 17072A   26166.94928828 -.00000311  00000+0 -12536-3 0  9992
2 43010  99.0119 141.3491 0002579  64.9217 295.2226 14.19738276444811
NOAA 20 (JPSS-1)        
1 43013U 17073A   26166.94403852  .00000055  00000+0  46943-4 0  9994
2 43013  98.7771 106.4177 0000293  87.9774 272.1435 14.19511549444291
GOES 17                 
1 43226U 18022A   26166.45521164 -.00000180  00000+0  00000+0 0  9997
2 43226   0.9331  85.7405 0000399  34.0768 218.2957  1.00269922 30405
SENTINEL-3B             
1 43437U 18039A   26166.92736841  .00000064  00000+0  44625-4 0  9997
2 43437  98.6250 234.4777 0000736  86.8473 273.2792 14.26734293423944
FENGYUN 2H              
1 43491U 18050A   26166.91639407 -.00000131  00000+0  00000+0 0  9999
2 43491   3.0271  79.0829 0001964 138.3992  96.0271  1.00269718 29422
METOP-C                 
1 43689U 18087A   26166.87146124  .00000078  00000+0  55581-4 0  9990
2 43689  98.6645 226.4991 0001717 131.2129 228.9197 14.21511760394640
GEO-KOMPSAT-2A          
1 43823U 18100A   26166.95226068 -.00000343  00000+0  00000+0 0  9998
2 43823   0.0520 119.3430 0001780 326.9948 288.9728  1.00271059 27612
METEOR-M2 2             
1 44387U 19038A   26166.98024163 -.00000198  00000+0 -65627-4 0  9990
2 44387  98.9136 154.2474 0002092  50.1565 309.9797 14.24365041361123
ARKTIKA-M 1             
1 47719U 21016A   26165.99849030 -.00000233  00000+0  00000+0 0  9997
2 47719  63.2382  57.9810 7287766 269.9259  14.6142  2.00623319 38745
FENGYUN 3E              
1 49008U 21062A   26167.00375940 -.00000248  00000+0 -96057-4 0  9998
2 49008  98.7485 170.4246 0002821  87.9897 272.1603 14.19903014256410
GOES 18                 
1 51850U 22021A   26166.51705341  .00000099  00000+0  00000+0 0  9999
2 51850   0.0097  97.4311 0000303  68.9387 146.5668  1.00269699  6575
NOAA 21 (JPSS-2)        
1 54234U 22150A   26166.90650137  .00000045  00000+0  41911-4 0  9998
2 54234  98.7060 105.7172 0001583 157.0603 203.0645 14.19565291186369
METEOSAT-12 (MTG-I1)    
1 54743U 22170C   26166.79489174 -.00000007  00000+0  00000+0 0  9991
2 54743   0.7369  22.7417 0003135  71.7352  95.3415  1.00272279 12965
TIANMU-1 03             
1 55973U 23039A   26166.95074859  .00012744  00000+0  25195-3 0  9996
2 55973  97.5225 340.8714 0004232 101.9354 258.2370 15.47254157180649
TIANMU-1 04             
1 55974U 23039B   26166.94070185  .00012776  00000+0  24739-3 0  9992
2 55974  97.5163 340.0145 0004839  98.8572 261.3226 15.47851582180651
TIANMU-1 05             
1 55975U 23039C   26166.93145329  .00012198  00000+0  24186-3 0  9999
2 55975  97.5209 340.4664 0003924 117.8571 242.3077 15.47181352180629
TIANMU-1 06             
1 55976U 23039D   26166.94400326  .00012633  00000+0  24548-3 0  9998
2 55976  97.5215 341.1142 0004320 113.6069 246.5635 15.47756018180659
FENGYUN 3G              
1 56232U 23055A   26166.94802023  .00020684  00000+0  33634-3 0  9993
2 56232  49.9933 352.4073 0006960 291.4347  68.5877 15.52580022179819
METEOR-M2 3             
1 57166U 23091A   26166.97427476 -.00000005  00000+0  16796-4 0  9995
2 57166  98.6090 221.9774 0004292 158.6095 201.5265 14.24046676154340
TIANMU-1 07             
1 57399U 23101A   26166.98816020  .00005223  00000+0  18355-3 0  9991
2 57399  97.2591 217.6840 0004024 123.7564 236.4061 15.29796150161469
TIANMU-1 08             
1 57400U 23101B   26166.95480576  .00005411  00000+0  18997-3 0  9995
2 57400  97.2580 217.4223 0005560 118.0794 242.1010 15.29800462161450
TIANMU-1 09             
1 57401U 23101C   26166.93824503  .00005610  00000+0  19671-3 0  9997
2 57401  97.2538 216.8224 0004502 129.7011 230.4628 15.29831140161456
TIANMU-1 10             
1 57402U 23101D   26166.97127326  .00005495  00000+0  19285-3 0  9993
2 57402  97.2619 217.9039 0006100 129.0937 231.0847 15.29802833161456
FENGYUN 3F              
1 57490U 23111A   26166.98770439  .00000039  00000+0  38948-4 0  9998
2 57490  98.6835 237.0187 0001580  94.4671 265.6686 14.19938909148699
ARKTIKA-M 2             
1 58584U 23198A   26160.78386103  .00000212  00000+0  00000+0 0  9997
2 58584  63.2205 155.1874 6900401 267.4353  18.7899  2.00606537 18179
TIANMU-1 11             
1 58645U 23205A   26167.00501725  .00004897  00000+0  18743-3 0  9995
2 58645  97.3441 188.5804 0009099  21.1910 338.9705 15.26985657137340
TIANMU-1 12             
1 58646U 23205B   26166.97535398  .00004901  00000+0  18787-3 0  9998
2 58646  97.3429 188.3071 0006879   7.9045 352.2301 15.26949765137324
TIANMU-1 13             
1 58647U 23205C   26167.00741926  .00004970  00000+0  19136-3 0  9995
2 58647  97.3459 188.6111 0006039 346.3619  13.7455 15.26803564137326
TIANMU-1 14             
1 58648U 23205D   26166.99266008  .00005056  00000+0  19431-3 0  9990
2 58648  97.3393 187.7793 0007015 350.2186   9.8916 15.26848254137321
TIANMU-1 19             
1 58660U 23208A   26166.91493858  .00006782  00000+0  22511-3 0  9994
2 58660  97.4509 283.2078 0003926 333.9504  26.1539 15.31557736137132
